"Tarvos:Saturn XXI:2000 S 4" "Sol/Saturn" # Update-1
{
	Class "minormoon"
	Texture	 	"asteroid.jpg"
	Mesh		"asteroid.cms"
	Radius		6.5

	EllipticalOrbit
	{
	Period		925.60
	SemiMajorAxis	18247000
	Eccentricity	0.5355
	Inclination	36.341	#
	AscendingNode	244.676	#
	ArgOfPericenter	332.621	# J2000.0
	MeanAnomaly     255.729	#
	}

	RotationPeriod  10   # Guess

	Albedo 0.06
}

"2004 S 13" "Sol/Saturn" # Update-1
{
	Class "minormoon"
	Texture	 	"asteroid.jpg"
	Mesh		"asteroid.cms"
	Radius		3

	EllipticalOrbit
	{
	Epoch		2453400.5	# 2005 Jan 30
	Period		905.85
	SemiMajorAxis	18056253
	Eccentricity	0.2610261
	Inclination	145.257
	AscendingNode	339.270
	ArgOfPericenter	6.322
	MeanAnomaly     33.254
	}

	RotationPeriod  10   # Guess

	Albedo 0.06
}

"Hyrrokkin:Saturn XLIV:2004 S 19" "Sol/Saturn" # (previously Hyrokkin) MPEC 2006-M44 # Update-1
{
	Class "minormoon"
	Texture	 	"asteroid.jpg"
	Mesh		"asteroid.cms"
	Radius		4

	EllipticalOrbit
	{
	Epoch		2453800.5	# 2006 Mar 6
	Period		914.29
	SemiMajorAxis	18168300
	Eccentricity	0.3604062
	Inclination	151.827
	AscendingNode	248.953
	ArgOfPericenter 268.525     
	MeanAnomaly      89.589              
	}

	RotationPeriod  10   # Guess

	Albedo 0.06
}

"Greip:Saturn LI:2006 S 4" "Sol/Saturn" # MPEC 2006-M45 # Update-1
{
	Class "minormoon"
	Texture	 	"asteroid.jpg"
	Mesh		"asteroid.cms"
	Radius		3

	EllipticalOrbit
	{
	Epoch		2453800.5	# 2006 Mar 6
	Period		906.56
	SemiMajorAxis	18065700
	Eccentricity	0.3735237
	Inclination	175.914
	AscendingNode	235.009
	ArgOfPericenter 141.501     
	MeanAnomaly     105.502              
	}

	RotationPeriod  10   # Guess

	Albedo 0.06
}

"Mundilfari:Saturn XXV:2000 S 9" "Sol/Saturn" # Update-1
{
	Class "minormoon"
	Texture	 	"asteroid.jpg"
	Mesh		"asteroid.cms"
	Radius		2.8

	EllipticalOrbit
	{
	Period		951.38
	SemiMajorAxis	18709000
	Eccentricity	0.2078
	Inclination	150.253	#
	AscendingNode	338.432	#
	ArgOfPericenter	16.508	# J2000.0
	MeanAnomaly     97.432	#
	}

	RotationPeriod  10   # Guess

	Albedo 0.06
}

"2006 S 1" "Sol/Saturn" # MPEC 2006-M45 # Update-1
{
	Class "minormoon"
	Texture	 	"asteroid.jpg"
	Mesh		"asteroid.cms"
	Radius		3

	EllipticalOrbit
	{
	Epoch		2453800.5	# 2006 Mar 6
	Period		972.41
	SemiMajorAxis	18930200
	Eccentricity	0.1302807
	Inclination	159.579
	AscendingNode	178.730
	ArgOfPericenter 138.788     
	MeanAnomaly     241.766              
	}

	RotationPeriod  10   # Guess

	Albedo 0.06
}

"2007 S 3" "Sol/Saturn" # MPEC 2007-J09 # Update-1
{
	Class "minormoon"
	Texture	 	"asteroid.jpg"
	Mesh		"asteroid.cms"
	Radius		2.5

	EllipticalOrbit
	{
	Epoch		2454200.5	# 2007 Apr 10
	Period		991.66
	SemiMajorAxis	19179340
	Eccentricity	0.1506156
	Inclination	171.507
	AscendingNode	337.152
	ArgOfPericenter 284.032     
	MeanAnomaly     199.246
	}

	RotationPeriod  10   # Guess

	Albedo 0.06
}

"Bergelmir:Saturn XXXVIII:2004 S 15" "Sol/Saturn" # MPEC 2006-C55 # Update-1
{
	Class "minormoon"
	Texture	 	"asteroid.jpg"
	Mesh		"asteroid.cms"
	Radius		3

	EllipticalOrbit
	{
	Epoch		2453800.5	# 2006 Mar 6
	Period		985.95
	SemiMajorAxis	19105640
	Eccentricity	0.1297284
	Inclination	155.983
	AscendingNode	 30.246
	ArgOfPericenter	146.038
	MeanAnomaly      34.682
	}

	RotationPeriod  10   # Guess

	Albedo 0.06
}

"Jarnsaxa:Saturn L:2006 S 6" "Sol/Saturn" # MPEC 2007-D79 # Update-1
{
	Class "minormoon"
	Texture	 	"asteroid.jpg"
	Mesh		"asteroid.cms"
	Radius		3

	EllipticalOrbit
	{
	Epoch		2454200.5	# 2007 Apr 10
	Period		978.75
	SemiMajorAxis	19012500
	Eccentricity	0.1929545
	Inclination	164.138
	AscendingNode	232.487
	ArgOfPericenter 234.702     
	MeanAnomaly      70.074
	}

	RotationPeriod  10   # Guess

	Albedo 0.06
}

"Narvi:Saturn XXXI:2003 S 1" "Sol/Saturn" # Update-1
{
	Class "minormoon"
	Texture	 	"asteroid.jpg"
	Mesh		"asteroid.cms"
	Radius		3.3

	EllipticalOrbit
	{
	Epoch		2452629.5	# 2002 Dec 21
	Period		956.19		# mean
	SemiMajorAxis	18719000	# mean
	Eccentricity	0.3522		# mean
	Inclination	106.989
	AscendingNode	9.524
	ArgOfPericenter	172.396
	MeanAnomaly     139.109
	}

	RotationPeriod  10   # Guess

	Albedo 0.06
}

"2004 S 17" "Sol/Saturn" # Update-1
{
	Class "minormoon"
	Texture	 	"asteroid.jpg"
	Mesh		"asteroid.cms"
	Radius		2

	EllipticalOrbit
	{
	Epoch		2453400.5	# 2005 Jan 30
	Period		985.45
	SemiMajorAxis	19099175
	Eccentricity	0.2259100
	Inclination	153.848
	AscendingNode	331.252
	ArgOfPericenter	175.790
	MeanAnomaly     165.425
	}

	RotationPeriod  10   # Guess

	Albedo 0.06
}

"Suttungr:Saturn XXIII:2000 S 12" "Sol/Saturn" # Update-1
{
	Class "minormoon"
	Texture	 	"asteroid.jpg"
	Mesh		"asteroid.cms"
	Radius		2.8

	EllipticalOrbit
	{
	Period		1016.31
	SemiMajorAxis	19463000
	Eccentricity	0.1138
	Inclination	150.914	#
	AscendingNode	10.905	#
	ArgOfPericenter	350.499	# J2000.0
	MeanAnomaly     317.642	#
	}

	RotationPeriod  10   # Guess

	Albedo 0.06
}

